{"type": "FeatureCollection", "features": [ {"type": "Feature", "properties": {"norad_id": 38779, "name": "GSAT-10 (GAGAN/PRN 128)", "group": "gnss", "lat": 0.04423246476733769, "lon": 65.49476674811626, "alt_km": 35780.55776159672, "timestamp": "2025-12-21T16:47:54.980108+00:00", "meta": {"OBJECT_NAME": "GSAT-10 (GAGAN/PRN 128)", "OBJECT_ID": "2012-051B", "EPOCH": "2025-12-21T11:52:47.823744", "MEAN_MOTION": 1.00272004, "ECCENTRICITY": 0.0002389, "INCLINATION": 0.0709, "RA_OF_ASC_NODE": 264.1121, "ARG_OF_PERICENTER": 218.8563, "MEAN_ANOMALY": 228.5757, "EPHEMERIS_TYPE": 0, "CLASSIFICATION_TYPE": "U", "NORAD_CAT_ID": 38779, "ELEMENT_SET_NO": 999, "REV_AT_EPOCH": 4831, "BSTAR": 0, "MEAN_MOTION_DOT": -1.43e-06, "MEAN_MOTION_DDOT": 0}, "tle": {"line1": "1 38779U 12051B   25355.49499796 -.00000143  00000+0  00000+0 0  9997", "line2": "2 38779   0.0709 264.1121 0002389 218.8563 228.5757  1.00272004 48312"}}, "geometry": {"type": "Point", "coordinates": [65.49476674811626, 0.04423246476733769]}}, {"type": "Feature", "properties": {"norad_id": 38833, "name": "GPS BIIF-3  (PRN 24)", "group": "gnss", "lat": -53.5374793705086, "lon": 61.388684750163854, "alt_km": 20605.404286625806, "timestamp": "2025-12-21T16:47:54.980123+00:00", "meta": {"OBJECT_NAME": "GPS BIIF-3  (PRN 24)", "OBJECT_ID": "2012-053A", "EPOCH": "2025-12-21T07:50:41.137728", "MEAN_MOTION": 2.00565076, "ECCENTRICITY": 0.0176016, "INCLINATION": 53.5593, "RA_OF_ASC_NODE": 150.887, "ARG_OF_PERICENTER": 64.1244, "MEAN_ANOMALY": 297.6553, "EPHEMERIS_TYPE": 0, "CLASSIFICATION_TYPE": "U", "NORAD_CAT_ID": 38833, "ELEMENT_SET_NO": 999, "REV_AT_EPOCH": 9587, "BSTAR": 0, "MEAN_MOTION_DOT": 6e-07, "MEAN_MOTION_DDOT": 0}, "tle": {"line1": "1 38833U 12053A   25355.32686502  .00000060  00000+0  00000+0 0  9992", "line2": "2 38833  53.5593 150.8870 0176016  64.1244 297.6553  2.00565076 95875"}}, "geometry": {"type": "Point", "coordinates": [61.388684750163854, -53.5374793705086]}}, {"type": "Feature", "properties": {"norad_id": 38857, "name": "GSAT0103 (GALILEO-FM3)", "group": "gnss", "lat": -20.015885559875535, "lon": 92.03865736513515, "alt_km": 23221.630166732008, "timestamp": "2025-12-21T16:47:54.980137+00:00", "meta": {"OBJECT_NAME": "GSAT0103 (GALILEO-FM3)", "OBJECT_ID": "2012-055A", "EPOCH": "2025-12-18T05:17:11.481792", "MEAN_MOTION": 1.70473412, "ECCENTRICITY": 0.00028558, "INCLINATION": 55.6954, "RA_OF_ASC_NODE": 106.5161, "ARG_OF_PERICENTER": 269.0808, "MEAN_ANOMALY": 90.8455, "EPHEMERIS_TYPE": 0, "CLASSIFICATION_TYPE": "U", "NORAD_CAT_ID": 38857, "ELEMENT_SET_NO": 999, "REV_AT_EPOCH": 8192, "BSTAR": 0, "MEAN_MOTION_DOT": -7e-08, "MEAN_MOTION_DDOT": 0}, "tle": {"line1": "1 38857U 12055A   25352.22027178 -.00000007  00000+0  00000+0 0  9996", "line2": "2 38857  55.6954 106.5161 0002855 269.0808  90.8455  1.70473412 81920"}}, "geometry": {"type": "Point", "coordinates": [92.03865736513515, -20.015885559875535]}}, {"type": "Feature", "properties": {"norad_id": 38953, "name": "BEIDOU-2 G6 (C02)", "group": "gnss", "lat": -0.5935944405240556, "lon": 66.52347740917074, "alt_km": 35768.95637830161, "timestamp": "2025-12-21T16:47:54.980149+00:00", "meta": {"OBJECT_NAME": "BEIDOU-2 G6 (C02)", "OBJECT_ID": "2012-059A", "EPOCH": "2025-12-21T08:27:34.104384", "MEAN_MOTION": 1.00268734, "ECCENTRICITY": 0.0008279, "INCLINATION": 3.9699, "RA_OF_ASC_NODE": 75.4224, "ARG_OF_PERICENTER": 292.346, "MEAN_ANOMALY": 293.2331, "EPHEMERIS_TYPE": 0, "CLASSIFICATION_TYPE": "U", "NORAD_CAT_ID": 38953, "ELEMENT_SET_NO": 999, "REV_AT_EPOCH": 4812, "BSTAR": 0, "MEAN_MOTION_DOT": -1.54e-06, "MEAN_MOTION_DDOT": 0}, "tle": {"line1": "1 38953U 12059A   25355.35247806 -.00000154  00000+0  00000+0 0  9999", "line2": "2 38953   3.9699  75.4224 0008279 292.3460 293.2331  1.00268734 48121"}}, "geometry": {"type": "Point", "coordinates": [66.52347740917074, -0.5935944405240556]}}, {"type": "Feature", "properties": {"norad_id": 38977, "name": "LUCH 5B (SDCM/PRN 125)", "group": "gnss", "lat": -10.084615297942687, "lon": -33.68588768987063, "alt_km": 35781.85502523669, "timestamp": "2025-12-21T16:47:54.980161+00:00", "meta": {"OBJECT_NAME": "LUCH 5B (SDCM/PRN 125)", "OBJECT_ID": "2012-061A", "EPOCH": "2025-12-21T09:41:49.492320", "MEAN_MOTION": 1.00272311, "ECCENTRICITY": 0.000659, "INCLINATION": 10.0988, "RA_OF_ASC_NODE": 51.6228, "ARG_OF_PERICENTER": 195.5411, "MEAN_ANOMALY": 332.1896, "EPHEMERIS_TYPE": 0, "CLASSIFICATION_TYPE": "U", "NORAD_CAT_ID": 38977, "ELEMENT_SET_NO": 999, "REV_AT_EPOCH": 4782, "BSTAR": 0, "MEAN_MOTION_DOT": -1.21e-06, "MEAN_MOTION_DDOT": 0}, "tle": {"line1": "1 38977U 12061A   25355.40404505 -.00000121  00000+0  00000+0 0  9999", "line2": "2 38977  10.0988  51.6228 0006590 195.5411 332.1896  1.00272311 47822"}}, "geometry": {"type": "Point", "coordinates": [-33.68588768987063, -10.084615297942687]}}, {"type": "Feature", "properties": {"norad_id": 39155, "name": "COSMOS 2485 (747)", "group": "gnss", "lat": 44.29978508770443, "lon": -127.03404386007055, "alt_km": 19136.01516341534, "timestamp": "2025-12-21T16:47:54.980172+00:00", "meta": {"OBJECT_NAME": "COSMOS 2485 (747)", "OBJECT_ID": "2013-019A", "EPOCH": "2025-12-20T02:56:15.241632", "MEAN_MOTION": 2.1310322, "ECCENTRICITY": 0.0024876, "INCLINATION": 65.3174, "RA_OF_ASC_NODE": 79.6189, "ARG_OF_PERICENTER": 230.2075, "MEAN_ANOMALY": 129.6042, "EPHEMERIS_TYPE": 0, "CLASSIFICATION_TYPE": "U", "NORAD_CAT_ID": 39155, "ELEMENT_SET_NO": 999, "REV_AT_EPOCH": 9846, "BSTAR": 0, "MEAN_MOTION_DOT": -2e-07, "MEAN_MOTION_DDOT": 0}, "tle": {"line1": "1 39155U 13019A   25354.12239863 -.00000020  00000+0  00000+0 0  9991", "line2": "2 39155  65.3174  79.6189 0024876 230.2075 129.6042  2.13103220 98462"}}, "geometry": {"type": "Point", "coordinates": [-127.03404386007055, 44.29978508770443]}}, {"type": "Feature", "properties": {"norad_id": 39166, "name": "GPS BIIF-4  (PRN 27)", "group": "gnss", "lat": 6.2213059876024515, "lon": -79.37264342541934, "alt_km": 19902.28563370807, "timestamp": "2025-12-21T16:47:54.980183+00:00", "meta": {"OBJECT_NAME": "GPS BIIF-4  (PRN 27)", "OBJECT_ID": "2013-023A", "EPOCH": "2025-12-21T04:35:02.241024", "MEAN_MOTION": 2.00564674, "ECCENTRICITY": 0.0138431, "INCLINATION": 54.6447, "RA_OF_ASC_NODE": 276.2247, "ARG_OF_PERICENTER": 48.7169, "MEAN_ANOMALY": 312.5052, "EPHEMERIS_TYPE": 0, "CLASSIFICATION_TYPE": "U", "NORAD_CAT_ID": 39166, "ELEMENT_SET_NO": 999, "REV_AT_EPOCH": 9231, "BSTAR": 0, "MEAN_MOTION_DOT": -1.7e-07, "MEAN_MOTION_DDOT": 0}, "tle": {"line1": "1 39166U 13023A   25355.19099816 -.00000017  00000+0  00000+0 0  9994", "line2": "2 39166  54.6447 276.2247 0138431  48.7169 312.5052  2.00564674 92319"}}, "geometry": {"type": "Point", "coordinates": [-79.37264342541934, 6.2213059876024515]}}, {"type": "Feature", "properties": {"norad_id": 39199, "name": "IRNSS-1A", "group": "gnss", "lat": -16.22689765157719, "lon": 42.23156336696263, "alt_km": 35839.74606307546, "timestamp": "2025-12-21T16:47:54.980195+00:00", "meta": {"OBJECT_NAME": "IRNSS-1A", "OBJECT_ID": "2013-034A", "EPOCH": "2025-12-18T18:41:43.776960", "MEAN_MOTION": 1.00272479, "ECCENTRICITY": 0.0024472, "INCLINATION": 35.3183, "RA_OF_ASC_NODE": 66.4661, "ARG_OF_PERICENTER": 211.0525, "MEAN_ANOMALY": 145.3931, "EPHEMERIS_TYPE": 0, "CLASSIFICATION_TYPE": "U", "NORAD_CAT_ID": 39199, "ELEMENT_SET_NO": 999, "REV_AT_EPOCH": 4555, "BSTAR": 0, "MEAN_MOTION_DOT": 6.5e-07, "MEAN_MOTION_DDOT": 0}, "tle": {"line1": "1 39199U 13034A   25352.77897890  .00000065  00000+0  00000+0 0  9993", "line2": "2 39199  35.3183  66.4661 0024472 211.0525 145.3931  1.00272479 45557"}}, "geometry": {"type": "Point", "coordinates": [42.23156336696263, -16.22689765157719]}}, {"type": "Feature", "properties": {"norad_id": 39533, "name": "GPS BIIF-5  (PRN 30)", "group": "gnss", "lat": 9.49015360562086, "lon": 163.62507835797194, "alt_km": 20355.776975903762, "timestamp": "2025-12-21T16:47:54.980208+00:00", "meta": {"OBJECT_NAME": "GPS BIIF-5  (PRN 30)", "OBJECT_ID": "2014-008A", "EPOCH": "2025-12-20T04:30:10.868256", "MEAN_MOTION": 2.00559606, "ECCENTRICITY": 0.00799985, "INCLINATION": 53.6333, "RA_OF_ASC_NODE": 156.6204, "ARG_OF_PERICENTER": 226.3975, "MEAN_ANOMALY": 132.9264, "EPHEMERIS_TYPE": 0, "CLASSIFICATION_TYPE": "U", "NORAD_CAT_ID": 39533, "ELEMENT_SET_NO": 999, "REV_AT_EPOCH": 8609, "BSTAR": 0, "MEAN_MOTION_DOT": 6.4e-07, "MEAN_MOTION_DDOT": 0}, "tle": {"line1": "1 39533U 14008A   25354.18762579  .00000064  00000+0  00000+0 0  9998", "line2": "2 39533  53.6333 156.6204 0079998 226.3975 132.9264  2.00559606 86091"}}, "geometry": {"type": "Point", "coordinates": [163.62507835797194, 9.49015360562086]}}, {"type": "Feature", "properties": {"norad_id": 39617, "name": "ASTRA 5B (EGNOS/PRN 123)", "group": "gnss", "lat": 0.004245212337503203, "lon": 6.0413204889576235, "alt_km": 35786.014552901404, "timestamp": "2025-12-21T16:47:54.980222+00:00", "meta": {"OBJECT_NAME": "ASTRA 5B (EGNOS/PRN 123)", "OBJECT_ID": "2014-011B", "EPOCH": "2025-12-21T11:35:41.961984", "MEAN_MOTION": 1.00269907, "ECCENTRICITY": 0.0004448, "INCLINATION": 0.0431, "RA_OF_ASC_NODE": 2.8777, "ARG_OF_PERICENTER": 274.9368, "MEAN_ANOMALY": 9.9173, "EPHEMERIS_TYPE": 0, "CLASSIFICATION_TYPE": "U", "NORAD_CAT_ID": 39617, "ELEMENT_SET_NO": 999, "REV_AT_EPOCH": 4288, "BSTAR": 0, "MEAN_MOTION_DOT": 1.59e-06, "MEAN_MOTION_DDOT": 0}, "tle": {"line1": "1 39617U 14011B   25355.48312456  .00000159  00000+0  00000+0 0  9999", "line2": "2 39617   0.0431   2.8777 0004448 274.9368   9.9173  1.00269907 42881"}}, "geometry": {"type": "Point", "coordinates": [6.0413204889576235, 0.004245212337503203]}}]}